NORAD_CAT_ID,OBJECT_NAME,OBJECT_TYPE,EPOCH,MEAN_MOTION,ECCENTRICITY,INCLINATION,RA_OF_ASC_NODE,ARG_OF_PERICENTER,MEAN_ANOMALY,BSTAR,MEAN_MOTION_DOT,MEAN_MOTION_DDOT,TLE_LINE0,TLE_LINE1,TLE_LINE2,SEMIMAJOR_AXIS,PERIOD,APOGEE,PERIGEE,DECAYED
51966.0,STARLINK-3699,PAYLOAD,2023-04-07 09:26:31,15.05593811,0.0001334,53.1716,141.17,101.5855,258.5285,0.00014727,1.868e-05,0.0,0 STARLINK-3699,1 51966U 22025L   23097.39342508  .00001868  00000-0  14727-3 0  9990,2 51966  53.1716 141.1700 0001334 101.5855 258.5285 15.05593811 60067,6927.821,95.643,550.61,548.761,0.0
51966.0,STARLINK-3699,PAYLOAD,2023-04-08 09:20:23,15.05600932,0.0001476,53.1694,136.7182,84.099,276.0168,0.00017977,2.342e-05,0.0,0 STARLINK-3699,1 51966U 22025L   23098.38916520  .00002342  00000-0  17977-3 0  9999,2 51966  53.1694 136.7182 0001476  84.0990 276.0168 15.05600932 60213,6927.799,95.643,550.686,548.641,0.0
51966.0,STARLINK-3699,PAYLOAD,2023-04-08 18:53:56,15.05598963,0.0001446,53.1699,134.9357,93.6993,266.4162,8.5888e-05,9.73e-06,0.0,0 STARLINK-3699,1 51966U 22025L   23098.78746109  .00000973  00000-0  85888-4 0  9992,2 51966  53.1699 134.9357 0001446  93.6993 266.4162 15.05598963 61362,6927.805,95.643,550.671,548.668,0.0
51966.0,STARLINK-3699,PAYLOAD,2023-04-09 07:38:40,15.05595596,0.000148,53.169,132.5624,83.0338,277.082,0.00015571,1.991e-05,0.0,0 STARLINK-3699,1 51966U 22025L   23099.31852560  .00001991  00000-0  15571-3 0  9993,2 51966  53.1690 132.5624 0001480  83.0338 277.0820 15.05595596 60354,6927.815,95.643,550.705,548.655,0.0
51966.0,STARLINK-3699,PAYLOAD,2023-04-10 02:45:46,15.05592353,0.0001523,53.1691,129.0014,87.79,272.3264,-1.4305e-05,-4.88e-06,0.0,0 STARLINK-3699,1 51966U 22025L   23100.11511965 -.00000488  00000-0 -14305-4 0  9992,2 51966  53.1691 129.0014 0001523  87.7900 272.3264 15.05592353 61565,6927.825,95.643,550.745,548.635,0.0
51966.0,STARLINK-3699,PAYLOAD,2023-04-10 10:43:43,15.05596034,0.0001485,53.1695,127.5172,85.3108,274.8052,5.9637e-05,5.9e-06,0.0,0 STARLINK-3699,1 51966U 22025L   23100.44703438  .00000590  00000-0  59637-4 0  9995,2 51966  53.1695 127.5172 0001485  85.3108 274.8052 15.05596034 60525,6927.814,95.643,550.707,548.65,0.0
51966.0,STARLINK-3699,PAYLOAD,2023-04-10 18:41:41,15.05587853,0.0001504,53.1682,126.0328,90.0079,270.1083,-2.4253e-06,-3.14e-06,0.0,0 STARLINK-3699,1 51966U 22025L   23100.77895462 -.00000314  00000-0 -24253-5 0  9993,2 51966  53.1682 126.0328 0001504  90.0079 270.1083 15.05587853 61668,6927.839,95.644,550.746,548.662,0.0
51966.0,STARLINK-3699,PAYLOAD,2023-04-11 09:02:01,15.05584362,0.0001526,53.1671,123.3603,87.8097,272.3068,2.3769e-06,-2.44e-06,0.0,0 STARLINK-3699,1 51966U 22025L   23101.37640341 -.00000244  00000-0  23769-5 0  9996,2 51966  53.1671 123.3603 0001526  87.8097 272.3068 15.05584362 60668,6927.849,95.644,550.772,548.657,0.0
51966.0,STARLINK-3699,PAYLOAD,2023-04-12 07:20:16,15.05597298,0.000148,53.1654,119.2029,85.8962,274.2197,0.00013687,1.716e-05,0.0,0 STARLINK-3699,1 51966U 22025L   23102.30575151  .00001716  00000-0  13687-3 0  9996,2 51966  53.1654 119.2029 0001480  85.8962 274.2197 15.05597298 60805,6927.81,95.643,550.7,548.65,0.0
51966.0,STARLINK-3699,PAYLOAD,2023-04-13 10:25:21,15.05583919,0.000135,53.1636,114.1544,88.682,271.4324,4.1956e-05,3.32e-06,0.0,0 STARLINK-3699,1 51966U 22025L   23103.43427263  .00000332  00000-0  41956-4 0  9995,2 51966  53.1636 114.1544 0001350  88.6820 271.4324 15.05583919 60975,6927.851,95.644,550.651,548.781,0.0
51966.0,STARLINK-3699,PAYLOAD,2023-04-13 12:00:56,15.0558427,0.0001284,53.1629,113.8567,92.0294,268.0843,3.8401e-05,2.81e-06,0.0,0 STARLINK-3699,1 51966U 22025L   23103.50065507  .00000281  00000-0  38401-4 0  9996,2 51966  53.1629 113.8567 0001284  92.0294 268.0843 15.05584270 62070,6927.85,95.644,550.604,548.825,0.0
51966.0,STARLINK-3699,PAYLOAD,2023-04-14 10:19:11,15.05604732,0.0001195,53.1601,109.7014,105.4069,254.7053,7.717e-05,8.46e-06,0.0,0 STARLINK-3699,1 51966U 22025L   23104.42999911  .00000846  00000-0  77170-4 0  9996,2 51966  53.1601 109.7014 0001195 105.4069 254.7053 15.05604732 61127,6927.787,95.643,550.48,548.824,0.0
51966.0,STARLINK-3699,PAYLOAD,2023-04-15 00:39:31,15.05594754,0.0001322,53.1595,107.0286,89.1007,271.0134,0.00019731,2.598e-05,0.0,0 STARLINK-3699,1 51966U 22025L   23105.02744870  .00002598  00000-0  19731-3 0  9999,2 51966  53.1595 107.0286 0001322  89.1007 271.0134 15.05594754 62308,6927.818,95.643,550.598,548.767,0.0
51966.0,STARLINK-3699,PAYLOAD,2023-04-15 07:01:53,15.05588936,0.0001509,53.1582,105.8422,88.4642,271.6521,3.0001e-05,1.58e-06,0.0,0 STARLINK-3699,1 51966U 22025L   23105.29298523  .00000158  00000-0  30001-4 0  9991,2 51966  53.1582 105.8422 0001509  88.4642 271.6521 15.05588936 62341,6927.835,95.644,550.746,548.655,0.0
51966.0,STARLINK-3699,PAYLOAD,2023-04-15 16:35:26,15.05588186,0.000123,53.1564,104.059,92.679,267.4341,1.9056e-05,-1e-08,0.0,0 STARLINK-3699,1 51966U 22025L   23105.69128196 -.00000001  00000-0  19056-4 0  9998,2 51966  53.1564 104.0590 0001230  92.6790 267.4341 15.05588186 61316,6927.838,95.644,550.555,548.851,0.0
51966.0,STARLINK-3699,PAYLOAD,2023-04-16 06:55:45,15.05596,0.0001421,53.1543,101.3892,78.4676,281.6473,8.6647e-05,9.84e-06,0.0,0 STARLINK-3699,1 51966U 22025L   23106.28872408  .00000984  00000-0  86647-4 0  9995,2 51966  53.1543 101.3892 0001421  78.4676 281.6473 15.05596000 61403,6927.814,95.643,550.663,548.694,0.0
51966.0,STARLINK-3699,PAYLOAD,2023-04-16 16:29:18,15.05592741,0.0001362,53.1538,99.6088,104.4614,255.6527,-1.356e-05,-4.77e-06,0.0,0 STARLINK-3699,1 51966U 22025L   23106.68702236 -.00000477  00000-0 -13560-4 0  9993,2 51966  53.1538  99.6088 0001362 104.4614 255.6527 15.05592741 62555,6927.824,95.643,550.632,548.745,0.0
51966.0,STARLINK-3699,PAYLOAD,2023-04-17 06:49:38,15.05582168,0.0001533,53.1517,96.9342,90.2064,269.9101,-6.0818e-06,-3.68e-06,0.0,0 STARLINK-3699,1 51966U 22025L   23107.28447482 -.00000368  00000-0 -60818-5 0  9997,2 51966  53.1517  96.9342 0001533  90.2064 269.9101 15.05582168 61553,6927.856,95.644,550.783,548.659,0.0
51966.0,STARLINK-3699,PAYLOAD,2023-04-17 16:23:11,15.05584061,0.0001337,53.1515,95.1528,91.3495,268.7648,7.3019e-05,7.85e-06,0.0,0 STARLINK-3699,1 51966U 22025L   23107.68277319  .00000785  00000-0  73019-4 0  9998,2 51966  53.1515  95.1528 0001337  91.3495 268.7648 15.05584061 61614,6927.85,95.644,550.642,548.789,0.0
51966.0,STARLINK-3699,PAYLOAD,2023-04-18 08:19:06,15.05593983,0.0001301,53.1483,92.1803,89.1664,270.9475,0.00016549,2.134e-05,0.0,0 STARLINK-3699,1 51966U 22025L   23108.34659805  .00002134  00000-0  16549-3 0  9990,2 51966  53.1483  92.1803 0001301  89.1664 270.9475 15.05593983 61712,6927.82,95.643,550.586,548.784,0.0
51966.0,STARLINK-3699,PAYLOAD,2023-04-18 16:17:03,15.05591862,0.000122,53.1476,90.6948,89.3635,270.7495,0.00014836,1.884e-05,0.0,0 STARLINK-3699,1 51966U 22025L   23108.67851370  .00001884  00000-0  14836-3 0  9995,2 51966  53.1476  90.6948 0001220  89.3635 270.7495 15.05591862 61766,6927.826,95.643,550.537,548.846,0.0
51966.0,STARLINK-3699,PAYLOAD,2023-04-19 08:12:57,15.05602739,0.0001101,53.1463,87.7253,88.3663,271.7453,0.00039408,5.47e-05,0.0,0 STARLINK-3699,1 51966U 22025L   23109.34233757  .00005470  00000-0  39408-3 0  9990,2 51966  53.1463  87.7253 0001101  88.3663 271.7453 15.05602739 61868,6927.793,95.643,550.421,548.895,0.0
51966.0,STARLINK-3699,PAYLOAD,2023-04-20 08:06:50,15.05596111,9.78e-05,53.1413,83.2733,72.1295,287.9801,0.00014115,1.779e-05,0.0,0 STARLINK-3699,1 51966U 22025L   23110.33807996  .00001779  00000-0  14115-3 0  9999,2 51966  53.1413  83.2733 0000978  72.1295 287.9801 15.05596111 62010,6927.813,95.643,550.356,549.001,0.0
51966.0,STARLINK-3699,PAYLOAD,2023-04-21 04:49:31,15.05581873,0.0001039,53.14,79.4103,90.8434,269.2675,-5.9055e-05,-1.139e-05,0.0,0 STARLINK-3699,1 51966U 22025L   23111.20106467 -.00001139  00000-0 -59055-4 0  9996,2 51966  53.1400  79.4103 0001039  90.8434 269.2675 15.05581873 63231,6927.857,95.644,550.442,549.002,0.0
51966.0,STARLINK-3699,PAYLOAD,2023-04-21 14:23:04,15.05589631,0.0001126,53.1393,77.6278,94.9109,265.2009,5.696e-05,5.51e-06,0.0,0 STARLINK-3699,1 51966U 22025L   23111.59935840  .00000551  00000-0  56960-4 0  9990,2 51966  53.1393  77.6278 0001126  94.9109 265.2009 15.05589631 63299,6927.833,95.644,550.478,548.918,0.0
51966.0,STARLINK-3699,PAYLOAD,2023-04-21 22:21:02,15.05587555,0.0001215,53.1393,76.1415,94.2341,265.8788,0.00018637,2.438e-05,0.0,0 STARLINK-3699,1 51966U 22025L   23111.93127356  .00002438  00000-0  18637-3 0  9997,2 51966  53.1393  76.1415 0001215  94.2341 265.8788 15.05587555 62254,6927.84,95.644,550.546,548.863,0.0
51966.0,STARLINK-3699,PAYLOAD,2023-04-23 06:12:50,15.05587849,5.79e-05,53.1385,70.2011,64.8584,295.2466,-9.2589e-05,-1.628e-05,0.0,0 STARLINK-3699,1 51966U 22025L   23113.25891865 -.00001628  00000-0 -92589-4 0  9998,2 51966  53.1385  70.2011 0000579  64.8584 295.2466 15.05587849 63545,6927.839,95.644,550.105,549.303,0.0
51966.0,STARLINK-3699,PAYLOAD,2023-04-24 06:06:42,15.05602297,0.0001144,53.1354,65.7444,76.6819,283.4299,0.00033398,4.593e-05,0.0,0 STARLINK-3699,1 51966U 22025L   23114.25465965  .00004593  00000-0  33398-3 0  9991,2 51966  53.1354  65.7444 0001144  76.6819 283.4299 15.05602297 63695,6927.794,95.643,550.452,548.867,0.0
51966.0,STARLINK-3699,PAYLOAD,2023-04-25 02:49:24,15.05545095,0.0001332,53.1339,61.8811,115.3854,244.7273,-0.0012506,-0.00018434,0.0,0 STARLINK-3699,1 51966U 22025L   23115.11764482 -.00018434  00000-0 -12506-2 0  9991,2 51966  53.1339  61.8811 0001332 115.3854 244.7273 15.05545095 63821,6927.97,95.646,550.758,548.912,0.0
51966.0,STARLINK-3699,PAYLOAD,2023-04-26 02:43:19,15.05578591,0.000151,53.1317,57.4279,84.4044,275.7117,0.00090305,0.00012901,0.0,0 STARLINK-3699,1 51966U 22025L   23116.11341899  .00012901  00000-0  90305-3 0  9990,2 51966  53.1317  57.4279 0001510  84.4044 275.7117 15.05578591 63975,6927.867,95.644,550.778,548.686,0.0
